[{"OBJECT_NAME":"STARLINK-32750","OBJECT_ID":"2025-006U","EPOCH":"2026-03-09T00:18:25.672032","MEAN_MOTION":15.27606075,"ECCENTRICITY":0.00012043,"INCLINATION":43.0026,"RA_OF_ASC_NODE":296.0022,"ARG_OF_PERICENTER":282.8978,"MEAN_ANOMALY":77.1739,"EPHEMERIS_TYPE":0,"CLASSIFICATION_TYPE":"U","NORAD_CAT_ID":62572,"ELEMENT_SET_NO":999,"REV_AT_EPOCH":6476,"BSTAR":0.0010087082,"MEAN_MOTION_DOT":0.00027621,"MEAN_MOTION_DDOT":0},{"OBJECT_NAME":"FLOCK 4G-30","OBJECT_ID":"2025-009BY","EPOCH":"2026-03-09T17:00:32.842080","MEAN_MOTION":15.27244548,"ECCENTRICITY":0.00037948,"INCLINATION":97.3969,"RA_OF_ASC_NODE":150.6012,"ARG_OF_PERICENTER":342.4152,"MEAN_ANOMALY":17.6955,"EPHEMERIS_TYPE":0,"CLASSIFICATION_TYPE":"U","NORAD_CAT_ID":62679,"ELEMENT_SET_NO":999,"REV_AT_EPOCH":12134,"BSTAR":0.00049474629,"MEAN_MOTION_DOT":0.00013147,"MEAN_MOTION_DDOT":0}]
